[ 
{
  "name": "La Maison de Marie",
  "loc": "24 rue Gabriel-Vicaire, Perros-Guirec, 22700, France",
  "experience": "Confortable",
  "image": "https://d3h1lg3ksw6i6b.cloudfront.net/guide/fr/2020/xlarge/69334_pro_3.jpg",
  "link": "http://www.lamaisondemarie-laclarte.bzh",
  "tel": ":+33 2 96 49 05 96",
  "zipcode": "22700"
},{
  "name": "Le Manoir du Sphinx",
  "loc": "67 chemin de la Messe, Perros-Guirec, 22700, France",
  "experience": "Confortable. Nos établissements de charme.",
  "image": "https://d3h1lg3ksw6i6b.cloudfront.net/guide/fr/2020/xlarge/12376_plat1_1.jpg",
  "link": "http://www.lemanoirdusphinx.bzh",
  "tel": ":+33 2 96 23 25 42",
  "zipcode": "22700"
},{
  "name": "Le Bellevue",
  "loc": "1 avenue des Pyrénées, Lacroix-Falgarde, 31120, France",
  "experience": "Confortable",
  "image": "https://d3h1lg3ksw6i6b.cloudfront.net/guide/fr/2020/xlarge/8982_pro_43.jpg",
  "link": "http://www.restaurant-lebellevue.com",
  "tel": ":+33 5 61 76 94 97",
  "zipcode": "31120"
},{
  "name": "Le Chalet",
  "loc": "4 avenue Durandeau, Ax-les-Thermes, 09110, France",
  "experience": "Confortable",
  "image": "https://d3h1lg3ksw6i6b.cloudfront.net/guide/fr/2020/xlarge/123050_pro_3.jpg",
  "link": "http://www.le-chalet.fr",
  "tel": ":+33 5 61 64 24 31",
  "zipcode": "09110"
},{
  "name": "La Bonne Auberge",
  "loc": "63 Route Nationale, Dury, 80480, France",
  "experience": "Confortable",
  "image": "https://d3h1lg3ksw6i6b.cloudfront.net/guide/fr/2020/xlarge/221_pro_1.jpg",
  "link": "http://www.labonneauberge80.com",
  "tel": ":+33 3 22 95 03 33",
  "zipcode": "80480"
},{
  "name": "Au Cheval Blanc",
  "loc": "11 rue Principale, Niedersteinbach, 67510, France",
  "experience": "Confortable",
  "image": "https://d3h1lg3ksw6i6b.cloudfront.net/guide/fr/2020/xlarge/12113_pro_3.jpg",
  "link": "http://www.hotel-cheval-blanc.fr",
  "tel": ":+33 3 88 09 55 31",
  "zipcode": "67510"
},{
  "name": "La Closerie des Roses",
  "loc": "455 La Haute-Meilleraie, Varades, 44370, France",
  "experience": "Confortable. Nos établissements de charme.",
  "image": "https://d3h1lg3ksw6i6b.cloudfront.net/guide/fr/2020/xlarge/9358_ZMR_001.jpg",
  "link": "http://www.lacloseriedesroses.com",
  "tel": ":+33 2 40 98 33 30",
  "zipcode": "44370"
},{
  "name": "La Table d'Antan",
  "loc": "38 avenue de la Grande-Charmille-du-Parc, Sainte-Geneviève-des-Bois, 91700, France",
  "experience": "Confortable",
  "image": "https://d3h1lg3ksw6i6b.cloudfront.net/guide/fr/2020/xlarge/6790_pro_2.jpg",
  "link": "http://www.latabledantan.fr",
  "tel": ":+33 1 60 15 71 53",
  "zipcode": "91700"
},{
  "name": "Au Chapeau Rouge",
  "loc": "49 place du Général-de-Gaulle, Chinon, 37500, France",
  "experience": "Confortable",
  "image": "https://d3h1lg3ksw6i6b.cloudfront.net/guide/fr/2020/xlarge/2176_plat1_1.jpg",
  "link": "http://www.auchapeaurouge.fr",
  "tel": ":+33 2 47 98 08 08",
  "zipcode": "37500"
},{
  "name": "Maison Gambert",
  "loc": "2 rue de la Petite-Pirelle, Tain-l'Hermitage, 26600, France",
  "experience": "Assez confortable",
  "image": "https://d3h1lg3ksw6i6b.cloudfront.net/guide/fr/2020/xlarge/508654_pro_1.jpg",
  "link": "http://www.maisongambert.com",
  "tel": ":+33 4 75 09 19 85",
  "zipcode": "26600"
},{
  "name": "La Table",
  "loc": "1 traverse de Jas, Les Ribas, Tourtour, 83690, France",
  "experience": "Assez confortable. Nos établissements de charme.",
  "image": "https://d3h1lg3ksw6i6b.cloudfront.net/guide/fr/2020/xlarge/63544_pro_5.jpg",
  "link": "http://www.latable.fr",
  "tel": ":+33 4 94 70 55 95",
  "zipcode": "Tourtour"
},{
  "name": "Comptoir des Voyageurs",
  "loc": "Place de l'Église, Locronan, 29180, France",
  "experience": "Assez confortable",
  "image": "https://d3h1lg3ksw6i6b.cloudfront.net/guide/fr/2020/xlarge/476295_pro_4.jpg",
  "link": "http://www.comptoir-des-voyageurs.fr",
  "tel": ":+33 2 98 91 70 74",
  "zipcode": "29180"
},{
  "name": "Voyages des sens",
  "loc": "33 rue Principale, Treffort, 01370, France",
  "experience": "Confortable",
  "image": "https://d3h1lg3ksw6i6b.cloudfront.net/guide/fr/2020/xlarge/504521_001.jpg",
  "link": "http://www.voyagesdessens.com",
  "tel": ":+33 4 74 51 39 94",
  "zipcode": "01370"
},{
  "name": "La Fleur de Sel",
  "loc": "15 route du Portelin, Cevins, 73730, France",
  "experience": "Confortable",
  "image": "https://d3h1lg3ksw6i6b.cloudfront.net/guide/fr/2020/xlarge/121851_pro_7.jpg",
  "link": "http://www.restaurant-fleurdesel.fr",
  "tel": ":+33 4 79 37 49 98",
  "zipcode": "73730"
},{
  "name": "Le Jardin",
  "loc": "16 rue de la Redoute, Haguenau, 67500, France",
  "experience": "Très confortable",
  "image": "https://d3h1lg3ksw6i6b.cloudfront.net/guide/fr/2020/xlarge/3646_pro_1.jpg",
  "link": "http://www.lejardinhaguenau.fr",
  "tel": ":+33 3 88 93 29 39",
  "zipcode": "67500"
},{
  "name": "La Colombe",
  "loc": "663 route de Toulon, Hyères, 83400, France",
  "experience": "Confortable",
  "image": "https://d3h1lg3ksw6i6b.cloudfront.net/guide/fr/2020/xlarge/3769_pro_1.jpg",
  "link": "http://www.restaurantlacolombe.com",
  "tel": ":+33 4 94 35 35 16",
  "zipcode": "83400"
},{
  "name": "L'Escargot",
  "loc": "30 rue du Maréchal-Leclerc, Saumur, 49400, France",
  "experience": "Assez confortable",
  "image": "https://d3h1lg3ksw6i6b.cloudfront.net/guide/fr/2020/xlarge/33146_pro_15.jpg",
  "tel": ":+33 2 41 51 20 88",
  "zipcode": "49400"
},{
  "name": "Ttotta",
  "loc": "Espace Ibarrondoan, Saint-Pée-sur-Nivelle, 64310, France",
  "experience": "Assez confortable",
  "image": "https://d3h1lg3ksw6i6b.cloudfront.net/guide/fr/2020/xlarge/371122_pro_3.jpg",
  "link": "http://www.ttotta.fr",
  "tel": ":+33 5 59 47 03 55",
  "zipcode": "64310"
},{
  "name": "Le Vauban",
  "loc": "22 quai Caligny, Cherbourg-en-Cotentin, 50100, France",
  "experience": "Confortable",
  "image": "https://d3h1lg3ksw6i6b.cloudfront.net/guide/fr/2020/xlarge/2163_pro_1.jpg",
  "link": "http://www.levauban-cherbourg.fr",
  "tel": ":+33 2 33 43 10 11",
  "zipcode": "50100"
},{
  "name": "Au Fil des Saisons",
  "loc": "3 rue de la Libération, Étupes, 25460, France",
  "experience": "Assez confortable",
  "image": "https://d3h1lg3ksw6i6b.cloudfront.net/guide/fr/2020/xlarge/8641_pro_1.jpg",
  "link": "http://www.aufildessaisons.eu",
  "tel": ":+33 3 81 94 17 12",
  "zipcode": "25460"
},{
  "name": "Chez Michel",
  "loc": "10 rue de Belzunce, Paris, 75010, France",
  "experience": "Assez confortable",
  "image": "https://d3h1lg3ksw6i6b.cloudfront.net/guide/fr/2020/xlarge/122764_001.jpg",
  "link": "http://www.restaurantchezmichel.fr",
  "tel": ":+33 1 44 53 06 20",
  "zipcode": "75010"
},{
  "name": "Le Colvert",
  "loc": "8 rue d'en Boyer, Saint-Lieux-lès-Lavaur, 81500, France",
  "experience": "Confortable",
  "image": "https://d3h1lg3ksw6i6b.cloudfront.net/guide/fr/2020/xlarge/63526_plat1_1.jpg",
  "link": "http://www.restaurantlecolvert.com",
  "tel": ":+33 5 63 41 32 47",
  "zipcode": "81500"
},{
  "name": "Auberge des Deux Magots",
  "loc": "1 place du Bouffay, La Roche-Bernard, 56130, France",
  "experience": "Confortable",
  "image": "https://d3h1lg3ksw6i6b.cloudfront.net/guide/fr/2020/xlarge/465592_plat1_1.jpg",
  "link": "http://www.aubergedesdeuxmagots.fr",
  "tel": ":+33 2 99 90 60 75",
  "zipcode": "56130"
},{
  "name": "La Fleur de Sel",
  "loc": "17 rue Haute, Honfleur, 14600, France",
  "experience": "Confortable",
  "image": "https://d3h1lg3ksw6i6b.cloudfront.net/guide/fr/2020/xlarge/3731_pro_23.jpg",
  "link": "http://www.lafleurdesel-honfleur.com",
  "tel": ":+33 2 31 89 01 92",
  "zipcode": "14600"
},{
  "name": "La Merenda",
  "loc": "4 rue Raoul-Bosio, Nice, 06000, France",
  "experience": "Assez confortable",
  "image": "https://d3h1lg3ksw6i6b.cloudfront.net/guide/fr/2020/xlarge/5452_pro_005.jpg",
  "link": "http://www.lamerenda.net",
  "zipcode": "06000"
},{
  "name": "Le Rabelais",
  "loc": "8 rue Auguste-Fabre, Saint-Chamas, 13250, France",
  "experience": "Confortable",
  "image": "https://d3h1lg3ksw6i6b.cloudfront.net/guide/fr/2020/xlarge/7758_013.jpg",
  "link": "http://www.restaurant-le-rabelais.com",
  "tel": ":+33 4 90 50 84 40",
  "zipcode": "13250"
},{
  "name": "Au Cheval Blanc",
  "loc": "19 rue Principale, Graufthal, 67320, France",
  "experience": "Confortable",
  "image": "https://d3h1lg3ksw6i6b.cloudfront.net/guide/fr/2020/xlarge/6937_pro_4.jpg",
  "link": "http://www.auchevalblanc.net",
  "tel": ":+33 3 88 70 17 11",
  "zipcode": "67320"
},{
  "name": "Le Quai",
  "loc": "17 rue Joseph-Peala, Tain-l'Hermitage, 26600, France",
  "experience": "Assez confortable",
  "image": "https://d3h1lg3ksw6i6b.cloudfront.net/guide/fr/2020/xlarge/185587_pro_1.jpg",
  "link": "http://www.maisonchabran.com",
  "tel": ":+33 4 75 07 05 90",
  "zipcode": "26600"
},{
  "name": "Le Lancelot",
  "loc": "12 rue des Déportés, Chilleurs-aux-Bois, 45170, France",
  "experience": "Confortable",
  "image": "https://d3h1lg3ksw6i6b.cloudfront.net/guide/fr/2020/xlarge/2173_pro_6.jpg",
  "link": "http://www.restaurantlelancelot.com",
  "tel": ":+33 2 38 32 91 15",
  "zipcode": "45170"
},{
  "name": "Auberge de la Roche",
  "loc": "10 Route Nationale 23, Saint-Jean-de-Linières, 49070, France",
  "experience": "Confortable",
  "image": "https://d3h1lg3ksw6i6b.cloudfront.net/guide/placeholder/default1.jpg",
  "link": "http://www.auberge-de-la-roche.com",
  "tel": ":+33 2 41 39 72 21",
  "zipcode": "49070"
},{
  "name": "Auberge du Moulin",
  "loc": "36 rue des Moulins-du-Tot, Clères, 76690, France",
  "experience": "Confortable",
  "image": "https://d3h1lg3ksw6i6b.cloudfront.net/guide/fr/2020/xlarge/2212_002.jpg",
  "link": "http://www.aubergedumoulin.org",
  "tel": ":+33 2 35 33 62 76",
  "zipcode": "76690"
},{
  "name": "Coteaux et Fourchettes",
  "loc": "Route de Violès, Cairanne, 84290, France",
  "experience": "Confortable",
  "image": "https://d3h1lg3ksw6i6b.cloudfront.net/guide/fr/2020/xlarge/305304_pro_1.jpg",
  "link": "http://www.coteauxetfourchettes.com",
  "tel": ":+33 4 90 66 35 99",
  "zipcode": "84290"
},{
  "name": "La Griotte",
  "loc": "3 rue des Cerisiers, Saules, 25580, France",
  "experience": "Assez confortable. Nos établissements de charme.",
  "image": "https://d3h1lg3ksw6i6b.cloudfront.net/guide/fr/2020/xlarge/197827_pro_10.jpg",
  "link": "http://www.lagriotte.fr",
  "tel": ":+33 3 81 57 17 71",
  "zipcode": "25580"
},{
  "name": "La Maison",
  "loc": "1 rue du 14-Juillet, Cognac, 16100, France",
  "experience": "Confortable",
  "image": "https://d3h1lg3ksw6i6b.cloudfront.net/guide/fr/2020/xlarge/515197_pro_5.jpg",
  "link": "http://www.restaurant-lamaison-cognac.fr",
  "tel": ":+33 5 45 35 21 77",
  "zipcode": "16100"
},{
  "name": "Pomze",
  "loc": "109 boulevard Haussmann, Paris, 75008, France",
  "experience": "Confortable",
  "image": "https://d3h1lg3ksw6i6b.cloudfront.net/guide/fr/2020/xlarge/371410_plat1_1.jpg",
  "link": "http://www.pomze.com",
  "tel": ":+33 1 42 65 65 83",
  "zipcode": "75008"
},{
  "name": "La Part des Anges",
  "loc": "7 rue d'Empare, Castres, 81100, France",
  "experience": "Assez confortable",
  "image": "https://d3h1lg3ksw6i6b.cloudfront.net/guide/placeholder/pic_poilist_default_9.jpg",
  "tel": ":+33 5 63 51 65 25",
  "zipcode": "81100"
},{
  "name": "Histoire Ancienne",
  "loc": "20 rue Royale, Calais, 62100, France",
  "experience": "Assez confortable",
  "image": "https://d3h1lg3ksw6i6b.cloudfront.net/guide/fr/2020/xlarge/1558_pro_8.jpg",
  "link": "http://www.histoire-ancienne.com",
  "tel": ":+33 3 21 34 11 20",
  "zipcode": "62100"
},{
  "name": "Au Colombier",
  "loc": "126 allée Colombier, Anse, 69480, France",
  "experience": "Assez confortable",
  "image": "https://d3h1lg3ksw6i6b.cloudfront.net/guide/fr/2020/xlarge/172869_pro_2.jpg",
  "link": "http://www.aucolombier.com",
  "tel": ":+33 4 74 67 04 68",
  "zipcode": "69480"
},{
  "name": "L'Arum",
  "loc": "21 avenue Joseph-Clotis, Hyères, 83400, France",
  "experience": "Assez confortable",
  "image": "https://d3h1lg3ksw6i6b.cloudfront.net/guide/fr/2020/xlarge/1000375_pro_12.jpg",
  "tel": ":+33 4 83 99 42 04",
  "zipcode": "83400"
},{
  "name": "M Restaurant",
  "loc": "47 avenue Foch, Lyon, 69006, France",
  "experience": "Assez confortable",
  "image": "https://d3h1lg3ksw6i6b.cloudfront.net/guide/fr/2020/xlarge/235634_ZMR_001.jpg",
  "link": "http://www.mrestaurant.fr",
  "tel": ":+33 4 78 89 55 19",
  "zipcode": "69006"
},{
  "name": "Le Dauphin",
  "loc": "29 rue Gemare, Caen, 14000, France",
  "experience": "Très confortable",
  "image": "https://d3h1lg3ksw6i6b.cloudfront.net/guide/fr/2020/xlarge/10467_ZMR_001.jpg",
  "link": "http://www.le-dauphin-normandie.fr",
  "tel": ":+33 2 31 86 22 26",
  "zipcode": "14000"
},{
  "name": "La Maison Carrier",
  "loc": "44 route du Bouchet, Chamonix-Mont-Blanc, 74400, France",
  "experience": "Confortable. Nos établissements de charme.",
  "image": "https://d3h1lg3ksw6i6b.cloudfront.net/guide/fr/2020/xlarge/1944_pro_1.jpg",
  "link": "http://www.hameaualbert.fr",
  "tel": ":+33 4 50 53 00 03",
  "zipcode": "74400"
},{
  "name": "Les Capucins",
  "loc": "20 faubourg de Montbéliard, Belfort, 90000, France",
  "experience": "Confortable",
  "image": "https://d3h1lg3ksw6i6b.cloudfront.net/guide/fr/2020/xlarge/10228_ZMR_001.jpg",
  "link": "http://www.hotellescapucins.com",
  "tel": ":+33 3 84 28 04 60",
  "zipcode": "90000"
},{
  "name": "Ar Maen Hir",
  "loc": "15 bis rue du Prieuré, Locronan, 29180, France",
  "experience": "Assez confortable",
  "image": "https://d3h1lg3ksw6i6b.cloudfront.net/guide/fr/2020/xlarge/1024395_pro_3.jpg",
  "tel": ":+33 2 56 10 18 37",
  "zipcode": "29180"
},{
  "name": "Le Tire Bouchon",
  "loc": "45 rue Jules-le-Grand, Lorient, 56100, France",
  "experience": "Confortable",
  "image": "https://d3h1lg3ksw6i6b.cloudfront.net/guide/fr/2020/xlarge/236873_ZMR_001.jpg",
  "link": "http://www.restaurantalorient.com",
  "tel": ":+33 2 97 84 71 92",
  "zipcode": "56100"
},{
  "name": "Le Bastion",
  "loc": "50 boulevard de la Promenade, Lagrasse, 11220, France",
  "experience": "Assez confortable",
  "image": "https://d3h1lg3ksw6i6b.cloudfront.net/guide/fr/2020/xlarge/1186097_pro_3.jpg",
  "link": "http://www.restaurant-bastion-lagrasse.fr",
  "tel": ":+33 4 68 12 02 51",
  "zipcode": "11220"
}]